[{"OBJECT_NAME":"HJ-2A","OBJECT_ID":"2020-067A","EPOCH":"2026-03-09T22:54:37.031328","MEAN_MOTION":14.76559818,"ECCENTRICITY":0.00025704,"INCLINATION":97.8873,"RA_OF_ASC_NODE":149.6532,"ARG_OF_PERICENTER":194.0861,"MEAN_ANOMALY":166.0278,"EPHEMERIS_TYPE":0,"CLASSIFICATION_TYPE":"U","NORAD_CAT_ID":46478,"ELEMENT_SET_NO":999,"REV_AT_EPOCH":29361,"BSTAR":0.00012804668,"MEAN_MOTION_DOT":8.43e-6,"MEAN_MOTION_DDOT":0},{"OBJECT_NAME":"COSMOS 2251 DEB","OBJECT_ID":"1993-036AZN","EPOCH":"2026-03-08T04:55:11.679456","MEAN_MOTION":14.74823481,"ECCENTRICITY":0.01364476,"INCLINATION":73.9716,"RA_OF_ASC_NODE":347.1087,"ARG_OF_PERICENTER":142.1945,"MEAN_ANOMALY":218.8911,"EPHEMERIS_TYPE":0,"CLASSIFICATION_TYPE":"U","NORAD_CAT_ID":36385,"ELEMENT_SET_NO":999,"REV_AT_EPOCH":86361,"BSTAR":0.002162243,"MEAN_MOTION_DOT":0.00016854,"MEAN_MOTION_DDOT":0}]
